COMMENT,ORIGINATOR,NORAD_CAT_ID,OBJECT_NAME,OBJECT_TYPE,CLASSIFICATION_TYPE,INTLDES,EPOCH,EPOCH_MICROSECONDS,MEAN_MOTION,ECCENTRICITY,INCLINATION,RA_OF_ASC_NODE,ARG_OF_PERICENTER,MEAN_ANOMALY,EPHEMERIS_TYPE,ELEMENT_SET_NO,REV_AT_EPOCH,BSTAR,MEAN_MOTION_DOT,MEAN_MOTION_DDOT,FILE,TLE_LINE0,TLE_LINE1,TLE_LINE2,OBJECT_ID,OBJECT_NUMBER,SEMIMAJOR_AXIS,PERIOD,APOGEE,PERIGEE,DECAYED,date
GENERATED VIA SPACETRACK.ORG API,18 SPCS,48897,SPACEBEE-109,PAYLOAD,U,21059U,2023/1/13 0:13,767136,15.21402475,0.0009127,97.5781,147.8563,93.7173,266.5106,0,999,8573,0.0011358,0.00025507,0,3742402,0 SPACEBEE-109,1 48897U 21059U   23013.00955749  .00025507  00000-0  11358-2 0  9990,2 48897  97.5781 147.8563 0009127  93.7173 266.5106 15.21402475 85738,2021-059U,48897,6879.746,94.65,507.891,495.332,0,2023/1/24
GENERATED VIA SPACETRACK.ORG API,18 SPCS,48897,SPACEBEE-109,PAYLOAD,U,21059U,2023/1/13 8:07,509088,15.21422301,0.0009054,97.578,148.1876,92.2409,267.9863,0,999,8578,0.0012237,0.00027509,0,3743417,0 SPACEBEE-109,1 48897U 21059U   23013.33840867  .00027509  00000-0  12237-2 0  9991,2 48897  97.5780 148.1876 0009054  92.2409 267.9863 15.21422301 85783,2021-059U,48897,6879.687,94.648,507.78,495.323,0,2023/1/25
GENERATED VIA SPACETRACK.ORG API,18 SPCS,48897,SPACEBEE-109,PAYLOAD,U,21059U,2023/1/14 7:47,526560,15.21487622,0.0008964,97.5778,149.1803,88.7417,271.4845,0,999,8593,0.0015858,0.00035778,0,3744623,0 SPACEBEE-109,1 48897U 21059U   23014.32493665  .00035778  00000-0  15858-2 0  9990,2 48897  97.5778 149.1803 0008964  88.7417 271.4845 15.21487622 85933,2021-059U,48897,6879.49,94.644,507.521,495.188,0,2023/1/26
GENERATED VIA SPACETRACK.ORG API,18 SPCS,48897,SPACEBEE-109,PAYLOAD,U,21059U,2023/1/15 15:21,901888,15.21574341,0.0008909,97.578,150.5048,83.9226,276.3024,0,999,8613,0.0014717,0.00033271,0,3747091,0 SPACEBEE-109,1 48897U 21059U   23015.64024192  .00033271  00000-0  14717-2 0  9990,2 48897  97.5780 150.5048 0008909  83.9226 276.3024 15.21574341 86138,2021-059U,48897,6879.228,94.639,507.222,494.965,0,2023/1/27
GENERATED VIA SPACETRACK.ORG API,18 SPCS,48897,SPACEBEE-109,PAYLOAD,U,21059U,2023/1/15 20:06,660256,15.21589368,0.0008919,97.578,150.7036,83.0872,277.1378,0,999,8616,0.0014657,0.00033149,0,3748002,0 SPACEBEE-109,1 48897U 21059U   23015.83753079  .00033149  00000-0  14657-2 0  9991,2 48897  97.5780 150.7036 0008919  83.0872 277.1378 15.21589368 86165,2021-059U,48897,6879.183,94.638,507.184,494.912,0,2023/1/28
GENERATED VIA SPACETRACK.ORG API,18 SPCS,48897,SPACEBEE-109,PAYLOAD,U,21059U,2023/1/15 21:40,494464,15.21600367,0.0008879,97.5781,150.7698,82.8039,277.4205,0,999,8617,0.001787,0.00040484,0,3748322,0 SPACEBEE-109,1 48897U 21059U   23015.90329276  .00040484  00000-0  17870-2 0  9997,2 48897  97.5781 150.7698 0008879  82.8039 277.4205 15.21600367 86173,2021-059U,48897,6879.15,94.637,507.123,494.907,0,2023/1/29
GENERATED VIA SPACETRACK.ORG API,18 SPCS,48897,SPACEBEE-109,PAYLOAD,U,21059U,2023/1/16 8:43,955488,15.21638539,0.0008912,97.578,151.2334,81.2824,278.942,0,999,8624,0.0018054,0.0004095,0,3748927,0 SPACEBEE-109,1 48897U 21059U   23016.36362217  .00040950  00000-0  18054-2 0  9993,2 48897  97.5780 151.2334 0008912  81.2824 278.9420 15.21638539 86243,2021-059U,48897,6879.035,94.635,507.03,494.769,0,2023/1/30
GENERATED VIA SPACETRACK.ORG API,18 SPCS,48897,SPACEBEE-109,PAYLOAD,U,21059U,2023/1/16 15:02,709120,15.21652683,0.000889,97.5781,151.4982,80.3833,279.8406,0,999,8628,0.0015146,0.00034326,0,3749606,0 SPACEBEE-109,1 48897U 21059U   23016.62666330  .00034326  00000-0  15146-2 0  9994,2 48897  97.5781 151.4982 0008890  80.3833 279.8406 15.21652683 86284,2021-059U,48897,6878.992,94.634,506.973,494.742,0,2023/1/31
GENERATED VIA SPACETRACK.ORG API,18 SPCS,48897,SPACEBEE-109,PAYLOAD,U,21059U,2023/1/16 22:55,756960,15.2167479,0.0008878,97.578,151.8294,79.2498,280.9736,0,999,8633,0.0014244,0.0003229,0,3751191,0 SPACEBEE-109,1 48897U 21059U   23016.95546015  .00032290  00000-0  14244-2 0  9993,2 48897  97.5780 151.8294 0008878  79.2498 280.9736 15.21674790 86331,2021-059U,48897,6878.926,94.633,506.898,494.683,0,2023/2/1
GENERATED VIA SPACETRACK.ORG API,18 SPCS,48897,SPACEBEE-109,PAYLOAD,U,21059U,2023/1/17 14:42,834848,15.2171165,0.0008841,97.5776,152.4918,76.9914,283.2308,0,999,8643,0.0013117,0.00029751,0,3753023,0 SPACEBEE-109,1 48897U 21059U   23017.61304207  .00029751  00000-0  13117-2 0  9998,2 48897  97.5776 152.4918 0008841  76.9914 283.2308 15.21711650 86432,2021-059U,48897,6878.814,94.63,506.761,494.598,0,2023/2/2
GENERATED VIA SPACETRACK.ORG API,18 SPCS,48897,SPACEBEE-109,PAYLOAD,U,21059U,2023/1/18 8:04,798624,15.21757516,0.0008762,97.5774,153.2203,74.1907,286.0294,0,999,8654,0.0015644,0.00035571,0,3753835,0 SPACEBEE-109,1 48897U 21059U   23018.33636341  .00035571  00000-0  15644-2 0  9999,2 48897  97.5774 153.2203 0008762  74.1907 286.0294 15.21757516 86548,2021-059U,48897,6878.676,94.627,506.568,494.514,0,2023/2/3
GENERATED VIA SPACETRACK.ORG API,18 SPCS,48897,SPACEBEE-109,PAYLOAD,U,21059U,2023/1/18 8:04,798624,15.21757516,0.0008762,97.5774,153.2203,74.1907,286.0294,0,999,8654,0.0015644,0.00035571,0,3753951,0 SPACEBEE-109,1 48897U 21059U   23018.33636341  .00035571  00000-0  15644-2 0  9999,2 48897  97.5774 153.2203 0008762  74.1907 286.0294 15.21757516 86548,2021-059U,48897,6878.676,94.627,506.568,494.514,0,2023/2/4
GENERATED VIA SPACETRACK.ORG API,18 SPCS,48897,SPACEBEE-109,PAYLOAD,U,21059U,2023/1/19 7:44,132096,15.2181572,0.0008733,97.5774,154.2138,70.6797,289.5382,0,999,8669,0.0012651,0.00028775,0,3754751,0 SPACEBEE-109,1 48897U 21059U   23019.32267514  .00028775  00000-0  12651-2 0  9994,2 48897  97.5774 154.2138 0008733  70.6797 289.5382 15.21815720 86696,2021-059U,48897,6878.501,94.624,506.373,494.359,0,2023/2/5
GENERATED VIA SPACETRACK.ORG API,18 SPCS,48897,SPACEBEE-109,PAYLOAD,U,21059U,2023/1/19 7:44,132096,15.2181572,0.0008733,97.5774,154.2138,70.6797,289.5382,0,999,8669,0.0012651,0.00028775,0,3754973,0 SPACEBEE-109,1 48897U 21059U   23019.32267514  .00028775  00000-0  12651-2 0  9994,2 48897  97.5774 154.2138 0008733  70.6797 289.5382 15.21815720 86696,2021-059U,48897,6878.501,94.624,506.373,494.359,0,2023/2/6
GENERATED VIA SPACETRACK.ORG API,18 SPCS,48897,SPACEBEE-109,PAYLOAD,U,21059U,2023/1/20 8:59,677376,15.21885415,0.0008811,97.578,155.274,67.3626,292.854,0,999,8685,0.0013341,0.00030417,0,3755739,0 SPACEBEE-109,1 48897U 21059U   23020.37469534  .00030417  00000-0  13341-2 0  9990,2 48897  97.5780 155.2740 0008811  67.3626 292.8540 15.21885415 86853,2021-059U,48897,6878.291,94.619,506.216,494.095,0,2023/2/7
GENERATED VIA SPACETRACK.ORG API,18 SPCS,48897,SPACEBEE-109,PAYLOAD,U,21059U,2023/1/20 8:59,677376,15.21885415,0.0008811,97.578,155.274,67.3626,292.854,0,999,8685,0.0013341,0.00030417,0,3755973,0 SPACEBEE-109,1 48897U 21059U   23020.37469534  .00030417  00000-0  13341-2 0  9990,2 48897  97.5780 155.2740 0008811  67.3626 292.8540 15.21885415 86853,2021-059U,48897,6878.291,94.619,506.216,494.095,0,2023/2/8
GENERATED VIA SPACETRACK.ORG API,18 SPCS,48897,SPACEBEE-109,PAYLOAD,U,21059U,2023/1/21 14:58,784256,15.21968692,0.0008862,97.5788,156.5328,63.2541,296.96,0,999,8704,0.0015648,0.00035803,0,3757158,0 SPACEBEE-109,1 48897U 21059U   23021.62390954  .00035803  00000-0  15648-2 0  9994,2 48897  97.5788 156.5328 0008862  63.2541 296.9600 15.21968692 87047,2021-059U,48897,6878.04,94.614,506,493.81,0,2023/2/9
GENERATED VIA SPACETRACK.ORG API,18 SPCS,48897,SPACEBEE-109,PAYLOAD,U,21059U,2023/1/22 14:38,216128,15.22028973,0.0008801,97.5788,157.5267,59.7467,300.4639,0,999,8719,0.0013169,0.0003015,0,3758072,0 SPACEBEE-109,1 48897U 21059U   23022.61008352  .00030150  00000-0  13169-2 0  9998,2 48897  97.5788 157.5267 0008801  59.7467 300.4639 15.22028973 87199,2021-059U,48897,6877.858,94.611,505.777,493.67,0,2023/2/10
GENERATED VIA SPACETRACK.ORG API,18 SPCS,48897,SPACEBEE-109,PAYLOAD,U,21059U,2023/1/23 22:11,126880,15.22111061,0.00087,97.579,158.8518,54.2862,305.9182,0,999,8739,0.001344,0.00030848,0,3759449,0 SPACEBEE-109,1 48897U 21059U   23023.92492045  .00030848  00000-0  13440-2 0  9995,2 48897  97.5790 158.8518 0008700  54.2862 305.9182 15.22111061 87398,2021-059U,48897,6877.611,94.605,505.46,493.493,0,2023/2/11
GENERATED VIA SPACETRACK.ORG API,18 SPCS,48897,SPACEBEE-109,PAYLOAD,U,21059U,2023/1/25 2:35,737120,15.22181371,0.0008763,97.579,160.0444,50.5459,309.6551,0,999,8757,0.001352,0.00031098,0,3760418,0 SPACEBEE-109,1 48897U 21059U   23025.10821455  .00031098  00000-0  13520-2 0  9995,2 48897  97.5790 160.0444 0008763  50.5459 309.6551 15.22181371 87573,2021-059U,48897,6877.399,94.601,505.291,493.238,0,2023/2/12
GENERATED VIA SPACETRACK.ORG API,18 SPCS,48897,SPACEBEE-109,PAYLOAD,U,21059U,2023/1/25 8:54,389888,15.22192788,0.0008805,97.5791,160.3094,49.866,310.3346,0,999,8761,0.0011238,0.00025828,0,3761297,0 SPACEBEE-109,1 48897U 21059U   23025.37116192  .00025828  00000-0  11238-2 0  9997,2 48897  97.5791 160.3094 0008805  49.8660 310.3346 15.22192788 87610,2021-059U,48897,6877.365,94.6,505.285,493.174,0,2023/2/13
GENERATED VIA SPACETRACK.ORG API,18 SPCS,48897,SPACEBEE-109,PAYLOAD,U,21059U,2023/1/25 19:57,549472,15.22218087,0.0008782,97.5791,160.773,48.6329,311.566,0,999,8768,0.0011874,0.00027319,0,3761360,0 SPACEBEE-109,1 48897U 21059U   23025.83131423  .00027319  00000-0  11874-2 0  9995,2 48897  97.5791 160.7730 0008782  48.6329 311.5660 15.22218087 87684,2021-059U,48897,6877.289,94.599,505.193,493.114,0,2023/2/14
GENERATED VIA SPACETRACK.ORG API,18 SPCS,48897,SPACEBEE-109,PAYLOAD,U,21059U,2023/1/26 8:34,435456,15.22246376,0.000879,97.5789,161.3034,46.6757,313.521,0,999,8776,0.0011501,0.00026478,0,3761858,0 SPACEBEE-109,1 48897U 21059U   23026.35719254  .00026478  00000-0  11501-2 0  9999,2 48897  97.5789 161.3034 0008790  46.6757 313.5210 15.22246376 87761,2021-059U,48897,6877.203,94.597,505.114,493.023,0,2023/2/15
